[{"OBJECT_NAME":"STARLINK-34646","OBJECT_ID":"2025-150G","EPOCH":"2026-03-09T16:00:03.000096","MEAN_MOTION":14.98326066,"ECCENTRICITY":0.00033275,"INCLINATION":70.001,"RA_OF_ASC_NODE":134.5975,"ARG_OF_PERICENTER":275.9537,"MEAN_ANOMALY":355.8693,"EPHEMERIS_TYPE":0,"CLASSIFICATION_TYPE":"U","NORAD_CAT_ID":64796,"ELEMENT_SET_NO":999,"REV_AT_EPOCH":562,"BSTAR":0.0016122573,"MEAN_MOTION_DOT":0.00019195,"MEAN_MOTION_DDOT":0},{"OBJECT_NAME":"CZ-6A DEB","OBJECT_ID":"2024-140QV","EPOCH":"2026-03-09T14:50:36.844800","MEAN_MOTION":14.79717429,"ECCENTRICITY":0.0126492,"INCLINATION":89.1682,"RA_OF_ASC_NODE":293.0345,"ARG_OF_PERICENTER":169.4874,"MEAN_ANOMALY":190.9042,"EPHEMERIS_TYPE":0,"CLASSIFICATION_TYPE":"U","NORAD_CAT_ID":61151,"ELEMENT_SET_NO":999,"REV_AT_EPOCH":8312,"BSTAR":0.0011388,"MEAN_MOTION_DOT":9.83e-5,"MEAN_MOTION_DDOT":0}]
